LANDSAT 9               
1 49260U 21088A   23301.17564719  .00000677  00000+0  16032-3 0  9993
2 49260  98.2171   9.3894 0001083  93.5946 266.5377 14.57123364110758
